EXO-0                   
1 59175U 23174DK  26068.71046781  .00011582  00000+0  36716-3 0  9992
2 59175  97.3864 148.9039 0009878 157.1125 203.0559 15.32821991129797
STARLINK-36081          
1 67498U 26012F   26068.05760604  .00041896  00000+0  15235-2 0  9990
2 67498  42.9991 318.1112 0001347 275.9114  84.1584 15.27575775  7661
