[{"OBJECT_NAME":"EXO-0","OBJECT_ID":"2023-174DK","EPOCH":"2026-03-09T17:03:04.419648","MEAN_MOTION":15.32821991,"ECCENTRICITY":0.00098779,"INCLINATION":97.3864,"RA_OF_ASC_NODE":148.9039,"ARG_OF_PERICENTER":157.1125,"MEAN_ANOMALY":203.0559,"EPHEMERIS_TYPE":0,"CLASSIFICATION_TYPE":"U","NORAD_CAT_ID":59175,"ELEMENT_SET_NO":999,"REV_AT_EPOCH":12979,"BSTAR":0.00036716083,"MEAN_MOTION_DOT":0.00011582,"MEAN_MOTION_DDOT":0},{"OBJECT_NAME":"STARLINK-36081","OBJECT_ID":"2026-012F","EPOCH":"2026-03-09T01:22:57.161856","MEAN_MOTION":15.27575775,"ECCENTRICITY":0.00013471,"INCLINATION":42.9991,"RA_OF_ASC_NODE":318.1112,"ARG_OF_PERICENTER":275.9114,"MEAN_ANOMALY":84.1584,"EPHEMERIS_TYPE":0,"CLASSIFICATION_TYPE":"U","NORAD_CAT_ID":67498,"ELEMENT_SET_NO":999,"REV_AT_EPOCH":766,"BSTAR":0.001523546,"MEAN_MOTION_DOT":0.00041896,"MEAN_MOTION_DDOT":0}]
